CCSDS_OMM_VERS = 2.0
CREATION_DATE  = 
ORIGINATOR     = 

OBJECT_NAME    = CYGNUS NG-23
OBJECT_ID      = 2025-208A
CENTER_NAME    = EARTH
REF_FRAME      = TEME
TIME_SYSTEM    = UTC
MEAN_ELEMENT_THEORY = SGP/SGP4

EPOCH          = 2025-12-29T12:01:02.523360
MEAN_MOTION    = 15.49944447
ECCENTRICITY   = .00032899
INCLINATION    = 51.6323
RA_OF_ASC_NODE = 59.4638
ARG_OF_PERICENTER = 318.5670
MEAN_ANOMALY   = 41.5069

EPHEMERIS_TYPE = 0
CLASSIFICATION_TYPE = U
NORAD_CAT_ID   = 65616
ELEMENT_SET_NO = 999
REV_AT_EPOCH   = 22
BSTAR          = .33150262E-3
MEAN_MOTION_DOT = .18472E-3
MEAN_MOTION_DDOT = 0

CCSDS_OMM_VERS = 2.0
CREATION_DATE  = 
ORIGINATOR     = 

OBJECT_NAME    = DRAGONFLY
OBJECT_ID      = 1998-067XH
CENTER_NAME    = EARTH
REF_FRAME      = TEME
TIME_SYSTEM    = UTC
MEAN_ELEMENT_THEORY = SGP/SGP4

EPOCH          = 2025-12-29T04:10:46.102944
MEAN_MOTION    = 15.78189024
ECCENTRICITY   = .0008582
INCLINATION    = 51.6250
RA_OF_ASC_NODE = 51.2497
ARG_OF_PERICENTER = 13.4870
MEAN_ANOMALY   = 346.6359

EPHEMERIS_TYPE = 0
CLASSIFICATION_TYPE = U
NORAD_CAT_ID   = 65729
ELEMENT_SET_NO = 999
REV_AT_EPOCH   = 1575
BSTAR          = .15916933E-2
MEAN_MOTION_DOT = .28793E-2
MEAN_MOTION_DDOT = 0

CCSDS_OMM_VERS = 2.0
CREATION_DATE  = 
ORIGINATOR     = 

OBJECT_NAME    = 1998-067XK
OBJECT_ID      = 1998-067XK
CENTER_NAME    = EARTH
REF_FRAME      = TEME
TIME_SYSTEM    = UTC
MEAN_ELEMENT_THEORY = SGP/SGP4

EPOCH          = 2025-12-29T12:03:57.265632
MEAN_MOTION    = 15.69221471
ECCENTRICITY   = .00051131
INCLINATION    = 51.6292
RA_OF_ASC_NODE = 51.9798
ARG_OF_PERICENTER = 349.6622
MEAN_ANOMALY   = 10.4269

EPHEMERIS_TYPE = 0
CLASSIFICATION_TYPE = U
NORAD_CAT_ID   = 65731
ELEMENT_SET_NO = 999
REV_AT_EPOCH   = 1577
BSTAR          = .12247894E-2
MEAN_MOTION_DOT = .147753E-2
MEAN_MOTION_DDOT = 0

CCSDS_OMM_VERS = 2.0
CREATION_DATE  = 
ORIGINATOR     = 

OBJECT_NAME    = RSP-03
OBJECT_ID      = 1998-067XL
CENTER_NAME    = EARTH
REF_FRAME      = TEME
TIME_SYSTEM    = UTC
MEAN_ELEMENT_THEORY = SGP/SGP4

EPOCH          = 2025-12-29T02:09:23.709600
MEAN_MOTION    = 15.73169027
ECCENTRICITY   = .00062495
INCLINATION    = 51.6263
RA_OF_ASC_NODE = 52.9551
ARG_OF_PERICENTER = 353.9826
MEAN_ANOMALY   = 6.1096

EPHEMERIS_TYPE = 0
CLASSIFICATION_TYPE = U
NORAD_CAT_ID   = 65732
ELEMENT_SET_NO = 999
REV_AT_EPOCH   = 1573
BSTAR          = .1412223E-2
MEAN_MOTION_DOT = .202673E-2
MEAN_MOTION_DDOT = 0

CCSDS_OMM_VERS = 2.0
CREATION_DATE  = 
ORIGINATOR     = 

OBJECT_NAME    = GHS-01
OBJECT_ID      = 1998-067XM
CENTER_NAME    = EARTH
REF_FRAME      = TEME
TIME_SYSTEM    = UTC
MEAN_ELEMENT_THEORY = SGP/SGP4

EPOCH          = 2025-12-29T09:38:58.474752
MEAN_MOTION    = 15.83384232
ECCENTRICITY   = .00097153
INCLINATION    = 51.6276
RA_OF_ASC_NODE = 49.0281
ARG_OF_PERICENTER = 18.8599
MEAN_ANOMALY   = 341.2762

EPHEMERIS_TYPE = 0
CLASSIFICATION_TYPE = U
NORAD_CAT_ID   = 65733
ELEMENT_SET_NO = 999
REV_AT_EPOCH   = 1581
BSTAR          = .17753679E-2
MEAN_MOTION_DOT = .4143E-2
MEAN_MOTION_DDOT = 0

CCSDS_OMM_VERS = 2.0
CREATION_DATE  = 
ORIGINATOR     = 

OBJECT_NAME    = YOTSUBA-KULOVER
OBJECT_ID      = 1998-067XN
CENTER_NAME    = EARTH
REF_FRAME      = TEME
TIME_SYSTEM    = UTC
MEAN_ELEMENT_THEORY = SGP/SGP4

EPOCH          = 2025-12-29T08:41:27.971520
MEAN_MOTION    = 15.61820724
ECCENTRICITY   = .00029882
INCLINATION    = 51.6297
RA_OF_ASC_NODE = 56.2929
ARG_OF_PERICENTER = 20.6804
MEAN_ANOMALY   = 339.4310

EPHEMERIS_TYPE = 0
CLASSIFICATION_TYPE = U
NORAD_CAT_ID   = 65941
ELEMENT_SET_NO = 999
REV_AT_EPOCH   = 1245
BSTAR          = .11005343E-2
MEAN_MOTION_DOT = .97972E-3
MEAN_MOTION_DDOT = 0

CCSDS_OMM_VERS = 2.0
CREATION_DATE  = 
ORIGINATOR     = 

OBJECT_NAME    = BOTAN
OBJECT_ID      = 1998-067XP
CENTER_NAME    = EARTH
REF_FRAME      = TEME
TIME_SYSTEM    = UTC
MEAN_ELEMENT_THEORY = SGP/SGP4

EPOCH          = 2025-12-29T09:19:10.778880
MEAN_MOTION    = 15.66651732
ECCENTRICITY   = .00039493
INCLINATION    = 51.6280
RA_OF_ASC_NODE = 54.9645
ARG_OF_PERICENTER = 6.1165
MEAN_ANOMALY   = 353.9879

EPHEMERIS_TYPE = 0
CLASSIFICATION_TYPE = U
NORAD_CAT_ID   = 65942
ELEMENT_SET_NO = 999
REV_AT_EPOCH   = 1247
BSTAR          = .14634063E-2
MEAN_MOTION_DOT = .159209E-2
MEAN_MOTION_DDOT = 0

CCSDS_OMM_VERS = 2.0
CREATION_DATE  = 
ORIGINATOR     = 

OBJECT_NAME    = E-KAGAKU-1
OBJECT_ID      = 1998-067XQ
CENTER_NAME    = EARTH
REF_FRAME      = TEME
TIME_SYSTEM    = UTC
MEAN_ELEMENT_THEORY = SGP/SGP4

EPOCH          = 2025-12-29T08:41:30.788160
MEAN_MOTION    = 15.61851101
ECCENTRICITY   = .00017232
INCLINATION    = 51.6307
RA_OF_ASC_NODE = 56.2984
ARG_OF_PERICENTER = 0.4534
MEAN_ANOMALY   = 359.6461

EPHEMERIS_TYPE = 0
CLASSIFICATION_TYPE = U
NORAD_CAT_ID   = 65943
ELEMENT_SET_NO = 999
REV_AT_EPOCH   = 1245
BSTAR          = .11222668E-2
MEAN_MOTION_DOT = .100051E-2
MEAN_MOTION_DDOT = 0

CCSDS_OMM_VERS = 2.0
CREATION_DATE  = 
ORIGINATOR     = 

OBJECT_NAME    = HRC MONOBLOCK CAMERA
OBJECT_ID      = 1998-067XR
CENTER_NAME    = EARTH
REF_FRAME      = TEME
TIME_SYSTEM    = UTC
MEAN_ELEMENT_THEORY = SGP/SGP4

EPOCH          = 2025-12-29T08:43:19.154496
MEAN_MOTION    = 15.55338132
ECCENTRICITY   = .00017181
INCLINATION    = 51.6309
RA_OF_ASC_NODE = 58.5485
ARG_OF_PERICENTER = 270.7951
MEAN_ANOMALY   = 89.2843

EPHEMERIS_TYPE = 0
CLASSIFICATION_TYPE = U
NORAD_CAT_ID   = 66052
ELEMENT_SET_NO = 999
REV_AT_EPOCH   = 1142
BSTAR          = .68286185E-3
MEAN_MOTION_DOT = .47047E-3
MEAN_MOTION_DDOT = 0

CCSDS_OMM_VERS = 2.0
CREATION_DATE  = 
ORIGINATOR     = 

OBJECT_NAME    = HTV-X1
OBJECT_ID      = 2025-241A
CENTER_NAME    = EARTH
REF_FRAME      = TEME
TIME_SYSTEM    = UTC
MEAN_ELEMENT_THEORY = SGP/SGP4

EPOCH          = 2025-12-29T12:01:02.523360
MEAN_MOTION    = 15.49944447
ECCENTRICITY   = .00032899
INCLINATION    = 51.6323
RA_OF_ASC_NODE = 59.4638
ARG_OF_PERICENTER = 318.5670
MEAN_ANOMALY   = 41.5069

EPHEMERIS_TYPE = 0
CLASSIFICATION_TYPE = U
NORAD_CAT_ID   = 66174
ELEMENT_SET_NO = 999
REV_AT_EPOCH   = 51
BSTAR          = .33150262E-3
MEAN_MOTION_DOT = .18472E-3
MEAN_MOTION_DDOT = 0

CCSDS_OMM_VERS = 2.0
CREATION_DATE  = 
ORIGINATOR     = 

OBJECT_NAME    = SZ-21 MODULE
OBJECT_ID      = 2025-246C
CENTER_NAME    = EARTH
REF_FRAME      = TEME
TIME_SYSTEM    = UTC
MEAN_ELEMENT_THEORY = SGP/SGP4

EPOCH          = 2025-12-28T18:28:38.146080
MEAN_MOTION    = 15.63373311
ECCENTRICITY   = .00037462
INCLINATION    = 41.4763
RA_OF_ASC_NODE = 278.1983
ARG_OF_PERICENTER = 347.8379
MEAN_ANOMALY   = 12.2370

EPHEMERIS_TYPE = 0
CLASSIFICATION_TYPE = U
NORAD_CAT_ID   = 66515
ELEMENT_SET_NO = 999
REV_AT_EPOCH   = 695
BSTAR          = .36158034E-3
MEAN_MOTION_DOT = .34087E-3
MEAN_MOTION_DDOT = 0

CCSDS_OMM_VERS = 2.0
CREATION_DATE  = 
ORIGINATOR     = 

OBJECT_NAME    = SHENZHOU-22
OBJECT_ID      = 2025-272A
CENTER_NAME    = EARTH
REF_FRAME      = TEME
TIME_SYSTEM    = UTC
MEAN_ELEMENT_THEORY = SGP/SGP4

EPOCH          = 2025-12-29T04:08:44.785248
MEAN_MOTION    = 15.59842432
ECCENTRICITY   = .00092303
INCLINATION    = 41.4674
RA_OF_ASC_NODE = 276.8939
ARG_OF_PERICENTER = 173.1352
MEAN_ANOMALY   = 186.9615

EPHEMERIS_TYPE = 0
CLASSIFICATION_TYPE = U
NORAD_CAT_ID   = 66645
ELEMENT_SET_NO = 999
REV_AT_EPOCH   = 26598
BSTAR          = .31522987E-3
MEAN_MOTION_DOT = .25856E-3
MEAN_MOTION_DDOT = 0

